ONEWEB-0674             
1 55833U 23029AP  26001.40651495  .00000193  00000+0  48666-3 0  9998
2 55833  87.9003 322.9631 0002180  77.1704 282.9669 13.14502191137501
ONEWEB-0675             
1 55834U 23029AQ  26001.94101976  .00000045  00000+0  80857-4 0  9997
2 55834  87.9202 338.0652 0001496  89.0423 271.0881 13.19726052136999
ONEWEB-0720             
1 55835U 23029AR  26001.93311525  .00000053  00000+0  10007-3 0  9998
2 55835  87.9205 338.0650 0001700  72.3043 287.8276 13.19726655136916
ONEWEB-0537             
1 56046U 23043A   26001.76125609 -.00000014  00000+0 -69800-4 0  9991
2 56046  87.9043 261.9091 0001371  82.5251 277.6036 13.16593394137069
ONEWEB-0538             
1 56047U 23043B   26001.75491410 -.00000033  00000+0 -11924-3 0  9991
2 56047  87.9043 261.9139 0001228  70.9941 289.1323 13.16593234137072
ONEWEB-0546             
1 56048U 23043C   26001.74225142 -.00000080  00000+0 -24372-3 0  9991
2 56048  87.9054 261.9102 0001434 102.9519 257.1772 13.16593085137067
ONEWEB-0547             
1 56049U 23043D   26001.79250063  .00000097  00000+0  20230-3 0  9992
2 56049  87.9227 277.1634 0001520  68.6629 291.4667 13.21827659136241
ONEWEB-0548             
1 56050U 23043E   26001.76678102  .00000025  00000+0  32665-4 0  9996
2 56050  87.9037 261.9093 0001973  75.3558 284.7792 13.16596197137069
